{
  "norad_id": 67620,
  "name": "STARLINK-36607",
  "history": [
    {
      "epoch": "2026-03-28T13:27:14.649408Z",
      "apogee_km": 483.62765527737974,
      "perigee_km": 482.31032292747204,
      "latitude_deg": 2.2100742927565582e-05,
      "longitude_deg": 5.061109584605288,
      "height_km": 482.17764447051826,
      "semi_major_axis_km": 6861.105989102425,
      "eccentricity": 9.6e-05,
      "inclination_deg": 42.9987,
      "raan_deg": 32.8514,
      "arg_perigee_deg": 30.7324,
      "mean_anomaly_deg": 329.3584,
      "mean_motion_rev_day": 15.27606753
    }
  ]
}